YOTSUBA-KULOVER         
1 65941U 98067XN  26069.96998316  .00263981  00000+0  12813-2 0  9994
2 65941  51.6214  50.6495 0005357  75.6158 284.5438 15.81144161 23705
E-KAGAKU-1              
1 65943U 98067XQ  26069.97473172  .00256100  00000+0  12655-2 0  9994
2 65943  51.6235  50.6992 0005850  82.4131 277.7535 15.80773818 23705
HRC MONOBLOCK CAMERA    
1 66052U 98067XR  26069.97968421  .00062148  00000+0  68879-3 0  9999
2 66052  51.6281  59.0221 0003633  97.1457 262.9950 15.62359831 22595
HTV-X1                  
1 66174U 25241A   26069.48132270  .00008982  00000+0  17350-3 0  9993
2 66174  51.6323  68.4424 0007950 177.3713 182.7319 15.48562437554475
SZ-21 MODULE            
1 66515U 25246C   26069.39180921  .00046134  00000+0  39495-3 0  9998
2 66515  41.4733 199.0379 0001321 300.4317  59.6394 15.68612654 18188
SHENZHOU-22             
1 66645U 25272A   26069.80341873  .00031070  00000+0  36544-3 0  9997
2 66645  41.4661 201.3850 0006965 279.9751  80.0301 15.60727089267525
SOYUZ-MS 28             
1 66664U 25275A   26069.48132270  .00008982  00000+0  17350-3 0  9994
2 66664  51.6323  68.4424 0007950 177.3713 182.7319 15.48562437554525
DUPLEX                  
1 66906U 98067XS  26069.61358754  .00039211  00000+0  55126-3 0  9996
2 66906  51.6293  64.8292 0002504 116.6687 243.4561 15.56285784 15273
ISS OBJECT XT           
1 66907U 98067XT  26069.21962525  .00189996  00000+0  15519-2 0  9997
2 66907  51.6253  62.9330 0004725  80.8513 279.3019 15.69436118 15267
ISS OBJECT XU           
1 66908U 98067XU  26069.53611705  .00177562  00000+0  14388-2 0  9993
2 66908  51.6261  61.2936 0004878  85.4529 274.7026 15.69670393 15316
SILVERSAT               
1 66909U 98067XV  26069.21803307  .00249186  00000+0  17776-2 0  9996
2 66909  51.6252  62.1676 0005475  80.1195 280.0421 15.72479555 15278
ISS OBJECT XW           
1 66910U 98067XW  26069.97908153  .00164476  00000+0  13723-2 0  9992
2 66910  51.6252  58.9973 0005333  93.6208 266.5399 15.69004083 15381
